{"type": "FeatureCollection", "features": [{"type": "Feature", "properties": {"norad_id": 66310, "name": "LVM3 R/B", "group": "last-30-days", "lat": -7.056116895144514, "lon": 124.70684716701167, "alt_km": 13015.73125912785, "timestamp": "2025-12-02T13:52:16.063179+00:00", "meta": {"OBJECT_NAME": "LVM3 R/B", "OBJECT_ID": "2025-249A", "EPOCH": "2025-12-01T23:22:58.503072", "MEAN_MOTION": 3.14325211, "ECCENTRICITY": 0.66684558, "INCLINATION": 21.35, "RA_OF_ASC_NODE": 143.6269, "ARG_OF_PERICENTER": 208.711, "MEAN_ANOMALY": 87.5012, "EPHEMERIS_TYPE": 0, "CLASSIFICATION_TYPE": "U", "NORAD_CAT_ID": 66310, "ELEMENT_SET_NO": 999, "REV_AT_EPOCH": 94, "BSTAR": 0.0011415101, "MEAN_MOTION_DOT": 0.00042681, "MEAN_MOTION_DDOT": -6.66618e-07}, "tle": {"line1": "1 66310U 25249A   25335.97428823  .00042681 -66662-6  11415-2 0  9997", "line2": "2 66310  21.3500 143.6269 6668455 208.7110  87.5012  3.14325211   947"}}, "geometry": {"type": "Point", "coordinates": [124.70684716701167, -7.056116895144514]}}, {"type": "Feature", "properties": {"norad_id": 66311, "name": "CMS-03 (GSAT-7R)", "group": "last-30-days", "lat": 0.18432762476105197, "lon": 13.1493655383183, "alt_km": 35788.29529928876, "timestamp": "2025-12-02T13:52:16.063233+00:00", "meta": {"OBJECT_NAME": "CMS-03 (GSAT-7R)", "OBJECT_ID": "2025-249B", "EPOCH": "2025-12-02T00:31:54.224832", "MEAN_MOTION": 1.00268583, "ECCENTRICITY": 0.00040142, "INCLINATION": 0.1679, "RA_OF_ASC_NODE": 272.063, "ARG_OF_PERICENTER": 195.7202, "MEAN_ANOMALY": 64.8082, "EPHEMERIS_TYPE": 0, "CLASSIFICATION_TYPE": "U", "NORAD_CAT_ID": 66311, "ELEMENT_SET_NO": 999, "REV_AT_EPOCH": 37, "BSTAR": 0, "MEAN_MOTION_DOT": -2.36e-06, "MEAN_MOTION_DDOT": 0}, "tle": {"line1": "1 66311U 25249B   25336.02215538 -.00000236  00000+0  00000+0 0  9994", "line2": "2 66311   0.1679 272.0630 0004014 195.7202  64.8082  1.00268583   378"}}, "geometry": {"type": "Point", "coordinates": [13.1493655383183, 0.18432762476105197]}}, {"type": "Feature", "properties": {"norad_id": 66313, "name": "YAOGAN-46", "group": "last-30-days", "lat": -11.829412460787097, "lon": 63.76637210950452, "alt_km": 7497.154809273558, "timestamp": "2025-12-02T13:52:16.063253+00:00", "meta": {"OBJECT_NAME": "YAOGAN-46", "OBJECT_ID": "2025-250A", "EPOCH": "2025-11-23T01:44:02.775840", "MEAN_MOTION": 5.35115916, "ECCENTRICITY": 0.00492374, "INCLINATION": 20.0335, "RA_OF_ASC_NODE": 104.8243, "ARG_OF_PERICENTER": 135.6954, "MEAN_ANOMALY": 224.7061, "EPHEMERIS_TYPE": 0, "CLASSIFICATION_TYPE": "U", "NORAD_CAT_ID": 66313, "ELEMENT_SET_NO": 999, "REV_AT_EPOCH": 114, "BSTAR": 0, "MEAN_MOTION_DOT": -7e-08, "MEAN_MOTION_DDOT": 0}, "tle": {"line1": "1 66313U 25250A   25327.07225435 -.00000007  00000+0  00000+0 0  9996", "line2": "2 66313  20.0335 104.8243 0049237 135.6954 224.7061  5.35115916  1148"}}, "geometry": {"type": "Point", "coordinates": [63.76637210950452, -11.829412460787097]}}, {"type": "Feature", "properties": {"norad_id": 66315, "name": "SENTINEL-1D", "group": "last-30-days", "lat": 6.875803962822061, "lon": -19.252853659622463, "alt_km": 697.0431682928347, "timestamp": "2025-12-02T13:52:16.063267+00:00", "meta": {"OBJECT_NAME": "SENTINEL-1D", "OBJECT_ID": "2025-251A", "EPOCH": "2025-12-02T00:40:48.264960", "MEAN_MOTION": 14.59909618, "ECCENTRICITY": 0.00025576, "INCLINATION": 98.1924, "RA_OF_ASC_NODE": 341.1996, "ARG_OF_PERICENTER": 156.7626, "MEAN_ANOMALY": 203.369, "EPHEMERIS_TYPE": 0, "CLASSIFICATION_TYPE": "U", "NORAD_CAT_ID": 66315, "ELEMENT_SET_NO": 999, "REV_AT_EPOCH": 397, "BSTAR": 6.5400358e-05, "MEAN_MOTION_DOT": 2.67e-06, "MEAN_MOTION_DDOT": 0}, "tle": {"line1": "1 66315U 25251A   25336.02833640  .00000267  00000+0  65400-4 0  9994", "line2": "2 66315  98.1924 341.1996 0002557 156.7626 203.3690 14.59909618  3975"}}, "geometry": {"type": "Point", "coordinates": [-19.252853659622463, 6.875803962822061]}}, {"type": "Feature", "properties": {"norad_id": 66316, "name": "QPS-SAR-14 (YACHIHOKO-I)", "group": "last-30-days", "lat": -37.874772264002644, "lon": 10.897106427846028, "alt_km": 582.299047515693, "timestamp": "2025-12-02T13:52:16.063279+00:00", "meta": {"OBJECT_NAME": "QPS-SAR-14 (YACHIHOKO-I)", "OBJECT_ID": "2025-252A", "EPOCH": "2025-12-01T22:22:08.570496", "MEAN_MOTION": 14.97516948, "ECCENTRICITY": 0.00069195, "INCLINATION": 42.003, "RA_OF_ASC_NODE": 134.6343, "ARG_OF_PERICENTER": 75.2493, "MEAN_ANOMALY": 284.9098, "EPHEMERIS_TYPE": 0, "CLASSIFICATION_TYPE": "U", "NORAD_CAT_ID": 66316, "ELEMENT_SET_NO": 999, "REV_AT_EPOCH": 391, "BSTAR": 0.00059360417, "MEAN_MOTION_DOT": 6.864e-05, "MEAN_MOTION_DDOT": 0}, "tle": {"line1": "1 66316U 25252A   25335.93204364  .00006864  00000+0  59360-3 0  9996", "line2": "2 66316  42.0030 134.6343 0006919  75.2493 284.9098 14.97516948  3919"}}, "geometry": {"type": "Point", "coordinates": [10.897106427846028, -37.874772264002644]}}, {"type": "Feature", "properties": {"norad_id": 66317, "name": "ELECTRON R/B", "group": "last-30-days", "lat": 37.84537762590674, "lon": 172.65098309808627, "alt_km": 192.98675302369065, "timestamp": "2025-12-02T13:52:16.063295+00:00", "meta": {"OBJECT_NAME": "ELECTRON R/B", "OBJECT_ID": "2025-252B", "EPOCH": "2025-11-29T21:07:58.211904", "MEAN_MOTION": 15.94243293, "ECCENTRICITY": 0.01246685, "INCLINATION": 41.9889, "RA_OF_ASC_NODE": 130.1303, "ARG_OF_PERICENTER": 46.1701, "MEAN_ANOMALY": 314.9386, "EPHEMERIS_TYPE": 0, "CLASSIFICATION_TYPE": "U", "NORAD_CAT_ID": 66317, "ELEMENT_SET_NO": 999, "REV_AT_EPOCH": 378, "BSTAR": 0.0019142518, "MEAN_MOTION_DOT": 0.01669799, "MEAN_MOTION_DDOT": 7.910989e-06}, "tle": {"line1": "1 66317U 25252B   25333.88053486  .01669799  79110-5  19143-2 0  9997", "line2": "2 66317  41.9889 130.1303 0124668  46.1701 314.9386 15.94243293  3785"}}, "geometry": {"type": "Point", "coordinates": [172.65098309808627, 37.84537762590674]}}, {"type": "Feature", "properties": {"norad_id": 66319, "name": "STARLINK-35442", "group": "last-30-days", "lat": -30.94635987548717, "lon": 4.386966899152037, "alt_km": 446.0778633843447, "timestamp": "2025-12-02T13:52:16.063307+00:00", "meta": {"OBJECT_NAME": "STARLINK-35442", "OBJECT_ID": "2025-253A", "EPOCH": "2025-12-02T06:00:02.999808", "MEAN_MOTION": 15.40651927, "ECCENTRICITY": 0.00012076, "INCLINATION": 43.0008, "RA_OF_ASC_NODE": 46.3241, "ARG_OF_PERICENTER": 288.2004, "MEAN_ANOMALY": 1.9001, "EPHEMERIS_TYPE": 0, "CLASSIFICATION_TYPE": "U", "NORAD_CAT_ID": 66319, "ELEMENT_SET_NO": 999, "REV_AT_EPOCH": 533, "BSTAR": 0.0013448071, "MEAN_MOTION_DOT": 0.00056197, "MEAN_MOTION_DDOT": 0}, "tle": {"line1": "1 66319U 25253A   25336.25003472  .00056197  00000+0  13448-2 0  9993", "line2": "2 66319  43.0008  46.3241 0001207 288.2004   1.9001 15.40651927  5338"}}, "geometry": {"type": "Point", "coordinates": [4.386966899152037, -30.94635987548717]}}, {"type": "Feature", "properties": {"norad_id": 66320, "name": "STARLINK-34616", "group": "last-30-days", "lat": 36.24848578924988, "lon": 96.0548189337912, "alt_km": 409.8070583730878, "timestamp": "2025-12-02T13:52:16.063318+00:00", "meta": {"OBJECT_NAME": "STARLINK-34616", "OBJECT_ID": "2025-253B", "EPOCH": "2025-12-02T05:53:01.480128", "MEAN_MOTION": 15.50652805, "ECCENTRICITY": 0.0001457, "INCLINATION": 43.0001, "RA_OF_ASC_NODE": 46.1139, "ARG_OF_PERICENTER": 251.2087, "MEAN_ANOMALY": 108.8615, "EPHEMERIS_TYPE": 0, "CLASSIFICATION_TYPE": "U", "NORAD_CAT_ID": 66320, "ELEMENT_SET_NO": 999, "REV_AT_EPOCH": 538, "BSTAR": 0.0016769602, "MEAN_MOTION_DOT": 0.00099559, "MEAN_MOTION_DDOT": 0}, "tle": {"line1": "1 66320U 25253B   25336.24515602  .00099559  00000+0  16770-2 0  9997", "line2": "2 66320  43.0001  46.1139 0001457 251.2087 108.8615 15.50652805  5385"}}, "geometry": {"type": "Point", "coordinates": [96.0548189337912, 36.24848578924988]}}, {"type": "Feature", "properties": {"norad_id": 66321, "name": "STARLINK-34615", "group": "last-30-days", "lat": -3.623104593011779, "lon": 39.54516613992387, "alt_km": 376.04400952998094, "timestamp": "2025-12-02T13:52:16.063329+00:00", "meta": {"OBJECT_NAME": "STARLINK-34615", "OBJECT_ID": "2025-253C", "EPOCH": "2025-12-01T13:21:43.206912", "MEAN_MOTION": 15.63263158, "ECCENTRICITY": 0.00023769, "INCLINATION": 42.9996, "RA_OF_ASC_NODE": 49.5325, "ARG_OF_PERICENTER": 5.4675, "MEAN_ANOMALY": 354.6216, "EPHEMERIS_TYPE": 0, "CLASSIFICATION_TYPE": "U", "NORAD_CAT_ID": 66321, "ELEMENT_SET_NO": 999, "REV_AT_EPOCH": 520, "BSTAR": 0.0016579406, "MEAN_MOTION_DOT": 0.00159038, "MEAN_MOTION_DDOT": 0}, "tle": {"line1": "1 66321U 25253C   25335.55675008  .00159038  00000+0  16579-2 0  9994", "line2": "2 66321  42.9996  49.5325 0002376   5.4675 354.6216 15.63263158  5206"}}, "geometry": {"type": "Point", "coordinates": [39.54516613992387, -3.623104593011779]}}, {"type": "Feature", "properties": {"norad_id": 66322, "name": "STARLINK-35292", "group": "last-30-days", "lat": -7.9942315023163095, "lon": 35.67377667528083, "alt_km": 444.3655900232461, "timestamp": "2025-12-02T13:52:16.063340+00:00", "meta": {"OBJECT_NAME": "STARLINK-35292", "OBJECT_ID": "2025-253D", "EPOCH": "2025-12-02T06:00:02.999808", "MEAN_MOTION": 15.40655905, "ECCENTRICITY": 0.00016913, "INCLINATION": 43.0008, "RA_OF_ASC_NODE": 46.2316, "ARG_OF_PERICENTER": 277.9556, "MEAN_ANOMALY": 49.3405, "EPHEMERIS_TYPE": 0, "CLASSIFICATION_TYPE": "U", "NORAD_CAT_ID": 66322, "ELEMENT_SET_NO": 999, "REV_AT_EPOCH": 524, "BSTAR": 0.0016460912, "MEAN_MOTION_DOT": 0.00068981, "MEAN_MOTION_DDOT": 0}, "tle": {"line1": "1 66322U 25253D   25336.25003472  .00068981  00000+0  16461-2 0  9999", "line2": "2 66322  43.0008  46.2316 0001691 277.9556  49.3405 15.40655905  5242"}}, "geometry": {"type": "Point", "coordinates": [35.67377667528083, -7.9942315023163095]}}]}